[{"OBJECT_NAME":"STARLINK-5971","OBJECT_ID":"2023-083AT","EPOCH":"2026-03-09T22:00:01.999584","MEAN_MOTION":15.07520475,"ECCENTRICITY":0.00019136,"INCLINATION":43.0006,"RA_OF_ASC_NODE":67.5285,"ARG_OF_PERICENTER":276.0834,"MEAN_ANOMALY":121.2729,"EPHEMERIS_TYPE":0,"CLASSIFICATION_TYPE":"U","NORAD_CAT_ID":56917,"ELEMENT_SET_NO":999,"REV_AT_EPOCH":572,"BSTAR":0.0046083449,"MEAN_MOTION_DOT":0.00071685,"MEAN_MOTION_DDOT":0},{"OBJECT_NAME":"OBJECT M","OBJECT_ID":"2017-042M","EPOCH":"2026-03-09T22:38:39.337440","MEAN_MOTION":15.07991931,"ECCENTRICITY":0.0005117,"INCLINATION":97.4139,"RA_OF_ASC_NODE":234.2602,"ARG_OF_PERICENTER":83.1417,"MEAN_ANOMALY":277.0393,"EPHEMERIS_TYPE":0,"CLASSIFICATION_TYPE":"U","NORAD_CAT_ID":42836,"ELEMENT_SET_NO":999,"REV_AT_EPOCH":47205,"BSTAR":0.00047182615,"MEAN_MOTION_DOT":7.201e-5,"MEAN_MOTION_DDOT":0}]
